HULIANWANG DIGUI-124    
1 67064U 25295F   26195.63052428 -.00000079  00000+0  97422-4 0  9993
2 67064  50.0000 286.9166 0001109 189.0148 171.0705 13.29329091 29157
HULIANWANG DIGUI-125    
1 67065U 25295G   26195.62210556 -.00000075  00000+0  10643-3 0  9996
2 67065  49.9994 286.8565 0001079 186.9728 173.1130 13.29329760 29153
HULIANWANG DIGUI-126    
1 67066U 25295H   26196.21514742 -.00000079  00000+0  96369-4 0  9991
2 67066  49.9995 284.6598 0001128 186.5841 173.5017 13.29322723 29233
HULIANWANG DIGUI-127    
1 67067U 25295J   26195.60531736 -.00000076  00000+0  10333-3 0  9999
2 67067  50.0010 286.8075 0001118 186.9662 173.1194 13.29330882 29151
HULIANWANG DIGUI-128    
1 67236U 25311A   26195.85294521 -.00000106  00000+0  39337-4 0  9991
2 67236  50.0098  16.3340 0000945  73.0046 287.0930 13.29323744 27021
HULIANWANG DIGUI-129    
1 67237U 25311B   26195.93640681 -.00000094  00000+0  65579-4 0  9996
2 67237  50.0086  16.0893 0000896  73.8334 286.2637 13.29325008 27033
HULIANWANG DIGUI-130    
1 67238U 25311C   26195.76104719 -.00000100  00000+0  50831-4 0  9998
2 67238  50.0070  17.1203 0000973  72.3031 287.7947 13.29323715 27008
HULIANWANG DIGUI-131    
1 67239U 25311D   26195.76941313 -.00000116  00000+0  17020-4 0  9998
2 67239  50.0066  17.1559 0000983  72.6371 287.4609 13.29323387 27006
HULIANWANG DIGUI-132    
1 67240U 25311E   26195.74431991 -.00000117  00000+0  15517-4 0  9994
2 67240  50.0077  17.0469 0000931  70.4881 289.6091 13.29324136 27006
HULIANWANG DIGUI-133    
1 67241U 25311F   26195.87799865 -.00000112  00000+0  26274-4 0  9993
2 67241  50.0122  16.4956 0000917  72.9157 287.1816 13.29324061 27026
HULIANWANG DIGUI-134    
1 67242U 25311G   26195.88632063 -.00000114  00000+0  21171-4 0  9994
2 67242  50.0050  16.4231 0000938  72.0525 288.0450 13.29323824 27026
HULIANWANG DIGUI-135    
1 67243U 25311H   26195.75267213 -.00000115  00000+0  18456-4 0  9995
2 67243  50.0037  17.0247 0000952  72.7455 287.3521 13.29323682 27002
HULIANWANG DIGUI-136    
1 67244U 25311J   26195.86960238 -.00000108  00000+0  33906-4 0  9994
2 67244  50.0104  16.4324 0000868  74.6011 285.4957 13.29324480 27023
HULIANWANG DIGUI-137    
1 67435U 26007A   26195.67155334 -.00000123  00000+0  29736-5 0  9995
2 67435  50.0098 347.2849 0000898 112.5526 247.5441 13.29326922 24443
HULIANWANG DIGUI-138    
1 67436U 26007B   26195.91382957 -.00000124  00000+0  11729-5 0  9990
2 67436  50.0076 346.5318 0000899 116.9427 243.1537 13.29325289 24478
HULIANWANG DIGUI-139    
1 67437U 26007C   26195.75494788 -.00000107  00000+0  37025-4 0  9996
2 67437  50.0049 346.9831 0000893 101.6105 258.4867 13.29328376 24454
