{"fetched_at":"2026-07-15T17:47:13.894Z","source":"https://celestrak.org/NORAD/elements/gp.php?NAME=HULIANWANG&FORMAT=JSON","constellation":"guowang","records":[{"OBJECT_NAME":"HULIANWANG DIGUI-124","OBJECT_ID":"2025-295F","EPOCH":"2026-07-14T15:07:57.297792","CLASSIFICATION_TYPE":"U","MEAN_MOTION":13.29329091,"ECCENTRICITY":0.00011095,"INCLINATION":50,"RA_OF_ASC_NODE":286.9166,"ARG_OF_PERICENTER":189.0148,"MEAN_ANOMALY":171.0705,"EPHEMERIS_TYPE":0,"NORAD_CAT_ID":67064,"ELEMENT_SET_NO":999,"REV_AT_EPOCH":2915,"BSTAR":0.000097422179,"MEAN_MOTION_DOT":-7.9e-7,"MEAN_MOTION_DDOT":0},{"OBJECT_NAME":"HULIANWANG DIGUI-125","OBJECT_ID":"2025-295G","EPOCH":"2026-07-14T14:55:49.920384","CLASSIFICATION_TYPE":"U","MEAN_MOTION":13.2932976,"ECCENTRICITY":0.00010798,"INCLINATION":49.9994,"RA_OF_ASC_NODE":286.8565,"ARG_OF_PERICENTER":186.9728,"MEAN_ANOMALY":173.113,"EPHEMERIS_TYPE":0,"NORAD_CAT_ID":67065,"ELEMENT_SET_NO":999,"REV_AT_EPOCH":2915,"BSTAR":0.00010642506,"MEAN_MOTION_DOT":-7.5e-7,"MEAN_MOTION_DDOT":0},{"OBJECT_NAME":"HULIANWANG DIGUI-126","OBJECT_ID":"2025-295H","EPOCH":"2026-07-15T05:09:48.737088","CLASSIFICATION_TYPE":"U","MEAN_MOTION":13.29322723,"ECCENTRICITY":0.0001128,"INCLINATION":49.9995,"RA_OF_ASC_NODE":284.6598,"ARG_OF_PERICENTER":186.5841,"MEAN_ANOMALY":173.5017,"EPHEMERIS_TYPE":0,"NORAD_CAT_ID":67066,"ELEMENT_SET_NO":999,"REV_AT_EPOCH":2923,"BSTAR":0.000096369,"MEAN_MOTION_DOT":-7.9e-7,"MEAN_MOTION_DDOT":0},{"OBJECT_NAME":"HULIANWANG DIGUI-127","OBJECT_ID":"2025-295J","EPOCH":"2026-07-14T14:31:39.419904","CLASSIFICATION_TYPE":"U","MEAN_MOTION":13.29330882,"ECCENTRICITY":0.00011183,"INCLINATION":50.001,"RA_OF_ASC_NODE":286.8075,"ARG_OF_PERICENTER":186.9662,"MEAN_ANOMALY":173.1194,"EPHEMERIS_TYPE":0,"NORAD_CAT_ID":67067,"ELEMENT_SET_NO":999,"REV_AT_EPOCH":2915,"BSTAR":0.00010332717,"MEAN_MOTION_DOT":-7.6e-7,"MEAN_MOTION_DDOT":0},{"OBJECT_NAME":"HULIANWANG DIGUI-128","OBJECT_ID":"2025-311A","EPOCH":"2026-07-14T20:28:14.466144","CLASSIFICATION_TYPE":"U","MEAN_MOTION":13.29323744,"ECCENTRICITY":0.0000945,"INCLINATION":50.0098,"RA_OF_ASC_NODE":16.334,"ARG_OF_PERICENTER":73.0046,"MEAN_ANOMALY":287.093,"EPHEMERIS_TYPE":0,"NORAD_CAT_ID":67236,"ELEMENT_SET_NO":999,"REV_AT_EPOCH":2702,"BSTAR":0.000039337,"MEAN_MOTION_DOT":-0.00000106,"MEAN_MOTION_DDOT":0},{"OBJECT_NAME":"HULIANWANG DIGUI-129","OBJECT_ID":"2025-311B","EPOCH":"2026-07-14T22:28:25.548384","CLASSIFICATION_TYPE":"U","MEAN_MOTION":13.29325008,"ECCENTRICITY":0.0000896,"INCLINATION":50.0086,"RA_OF_ASC_NODE":16.0893,"ARG_OF_PERICENTER":73.8334,"MEAN_ANOMALY":286.2637,"EPHEMERIS_TYPE":0,"NORAD_CAT_ID":67237,"ELEMENT_SET_NO":999,"REV_AT_EPOCH":2703,"BSTAR":0.000065579,"MEAN_MOTION_DOT":-9.4e-7,"MEAN_MOTION_DDOT":0},{"OBJECT_NAME":"HULIANWANG DIGUI-130","OBJECT_ID":"2025-311C","EPOCH":"2026-07-14T18:15:54.477216","CLASSIFICATION_TYPE":"U","MEAN_MOTION":13.29323715,"ECCENTRICITY":0.0000973,"INCLINATION":50.007,"RA_OF_ASC_NODE":17.1203,"ARG_OF_PERICENTER":72.3031,"MEAN_ANOMALY":287.7947,"EPHEMERIS_TYPE":0,"NORAD_CAT_ID":67238,"ELEMENT_SET_NO":999,"REV_AT_EPOCH":2700,"BSTAR":0.000050831431,"MEAN_MOTION_DOT":-0.000001,"MEAN_MOTION_DDOT":0},{"OBJECT_NAME":"HULIANWANG DIGUI-131","OBJECT_ID":"2025-311D","EPOCH":"2026-07-14T18:27:57.294432","CLASSIFICATION_TYPE":"U","MEAN_MOTION":13.29323387,"ECCENTRICITY":0.00009838,"INCLINATION":50.0066,"RA_OF_ASC_NODE":17.1559,"ARG_OF_PERICENTER":72.6371,"MEAN_ANOMALY":287.4609,"EPHEMERIS_TYPE":0,"NORAD_CAT_ID":67239,"ELEMENT_SET_NO":999,"REV_AT_EPOCH":2700,"BSTAR":0.000017019585,"MEAN_MOTION_DOT":-0.00000116,"MEAN_MOTION_DDOT":0},{"OBJECT_NAME":"HULIANWANG DIGUI-132","OBJECT_ID":"2025-311E","EPOCH":"2026-07-14T17:51:49.240224","CLASSIFICATION_TYPE":"U","MEAN_MOTION":13.29324136,"ECCENTRICITY":0.00009313,"INCLINATION":50.0077,"RA_OF_ASC_NODE":17.0469,"ARG_OF_PERICENTER":70.4881,"MEAN_ANOMALY":289.6091,"EPHEMERIS_TYPE":0,"NORAD_CAT_ID":67240,"ELEMENT_SET_NO":999,"REV_AT_EPOCH":2700,"BSTAR":0.000015516571,"MEAN_MOTION_DOT":-0.00000117,"MEAN_MOTION_DDOT":0},{"OBJECT_NAME":"HULIANWANG DIGUI-133","OBJECT_ID":"2025-311F","EPOCH":"2026-07-14T21:04:19.083360","CLASSIFICATION_TYPE":"U","MEAN_MOTION":13.29324061,"ECCENTRICITY":0.0000917,"INCLINATION":50.0122,"RA_OF_ASC_NODE":16.4956,"ARG_OF_PERICENTER":72.9157,"MEAN_ANOMALY":287.1816,"EPHEMERIS_TYPE":0,"NORAD_CAT_ID":67241,"ELEMENT_SET_NO":999,"REV_AT_EPOCH":2702,"BSTAR":0.000026274,"MEAN_MOTION_DOT":-0.00000112,"MEAN_MOTION_DDOT":0},{"OBJECT_NAME":"HULIANWANG DIGUI-134","OBJECT_ID":"2025-311G","EPOCH":"2026-07-14T21:16:18.102432","CLASSIFICATION_TYPE":"U","MEAN_MOTION":13.29323824,"ECCENTRICITY":0.0000938,"INCLINATION":50.005,"RA_OF_ASC_NODE":16.4231,"ARG_OF_PERICENTER":72.0525,"MEAN_ANOMALY":288.045,"EPHEMERIS_TYPE":0,"NORAD_CAT_ID":67242,"ELEMENT_SET_NO":999,"REV_AT_EPOCH":2702,"BSTAR":0.000021171,"MEAN_MOTION_DOT":-0.00000114,"MEAN_MOTION_DDOT":0},{"OBJECT_NAME":"HULIANWANG DIGUI-135","OBJECT_ID":"2025-311H","EPOCH":"2026-07-14T18:03:50.872032","CLASSIFICATION_TYPE":"U","MEAN_MOTION":13.29323682,"ECCENTRICITY":0.00009529,"INCLINATION":50.0037,"RA_OF_ASC_NODE":17.0247,"ARG_OF_PERICENTER":72.7455,"MEAN_ANOMALY":287.3521,"EPHEMERIS_TYPE":0,"NORAD_CAT_ID":67243,"ELEMENT_SET_NO":999,"REV_AT_EPOCH":2700,"BSTAR":0.000018456484,"MEAN_MOTION_DOT":-0.00000115,"MEAN_MOTION_DDOT":0},{"OBJECT_NAME":"HULIANWANG DIGUI-136","OBJECT_ID":"2025-311J","EPOCH":"2026-07-14T20:52:13.645632","CLASSIFICATION_TYPE":"U","MEAN_MOTION":13.2932448,"ECCENTRICITY":0.0000868,"INCLINATION":50.0104,"RA_OF_ASC_NODE":16.4324,"ARG_OF_PERICENTER":74.6011,"MEAN_ANOMALY":285.4957,"EPHEMERIS_TYPE":0,"NORAD_CAT_ID":67244,"ELEMENT_SET_NO":999,"REV_AT_EPOCH":2702,"BSTAR":0.000033906,"MEAN_MOTION_DOT":-0.00000108,"MEAN_MOTION_DDOT":0},{"OBJECT_NAME":"HULIANWANG DIGUI-137","OBJECT_ID":"2026-007A","EPOCH":"2026-07-14T16:07:02.208576","CLASSIFICATION_TYPE":"U","MEAN_MOTION":13.29326922,"ECCENTRICITY":0.00008981,"INCLINATION":50.0098,"RA_OF_ASC_NODE":347.2849,"ARG_OF_PERICENTER":112.5526,"MEAN_ANOMALY":247.5441,"EPHEMERIS_TYPE":0,"NORAD_CAT_ID":67435,"ELEMENT_SET_NO":999,"REV_AT_EPOCH":2444,"BSTAR":0.000002973583,"MEAN_MOTION_DOT":-0.00000123,"MEAN_MOTION_DDOT":0},{"OBJECT_NAME":"HULIANWANG DIGUI-138","OBJECT_ID":"2026-007B","EPOCH":"2026-07-14T21:55:54.874848","CLASSIFICATION_TYPE":"U","MEAN_MOTION":13.29325289,"ECCENTRICITY":0.0000899,"INCLINATION":50.0076,"RA_OF_ASC_NODE":346.5318,"ARG_OF_PERICENTER":116.9427,"MEAN_ANOMALY":243.1537,"EPHEMERIS_TYPE":0,"NORAD_CAT_ID":67436,"ELEMENT_SET_NO":999,"REV_AT_EPOCH":2447,"BSTAR":0.0000011729,"MEAN_MOTION_DOT":-0.00000124,"MEAN_MOTION_DDOT":0},{"OBJECT_NAME":"HULIANWANG DIGUI-139","OBJECT_ID":"2026-007C","EPOCH":"2026-07-14T18:07:07.496832","CLASSIFICATION_TYPE":"U","MEAN_MOTION":13.29328376,"ECCENTRICITY":0.00008935,"INCLINATION":50.0049,"RA_OF_ASC_NODE":346.9831,"ARG_OF_PERICENTER":101.6105,"MEAN_ANOMALY":258.4867,"EPHEMERIS_TYPE":0,"NORAD_CAT_ID":67437,"ELEMENT_SET_NO":999,"REV_AT_EPOCH":2445,"BSTAR":0.000037024699,"MEAN_MOTION_DOT":-0.00000107,"MEAN_MOTION_DDOT":0}]}
